GSAT0222 (GALILEO 26)   
1 43565U 18060B   23079.38282152 -.00000100  00000+0  00000+0 0  9990
2 43565  57.2571  13.7281 0004539 312.1540  47.7940  1.70475249 29013
GSAT0219 (GALILEO 23)   
1 43566U 18060C   23079.01675431 -.00000099  00000+0  00000+0 0  9994
2 43566  57.2575  13.7402 0004277 313.1774  46.7732  1.70475268 28986
GSAT0220 (GALILEO 24)   
1 43567U 18060D   23077.47732724 -.00000092  00000+0  00000+0 0  9995
2 43567  57.2567  13.7820 0004177 309.9288  50.0220  1.70475004 28948
BEIDOU-3 M13            
1 43622U 18072A   23081.11236209  .00000028  00000+0  00000+0 0  9991
2 43622  55.6539 102.0314 0008713 285.9306  88.4818  1.86231473 30628
BEIDOU-3 M14            
1 43623U 18072B   23080.60497477  .00000034  00000+0  00000+0 0  9998
2 43623  55.6559 102.0415 0006225 303.2668 181.2084  1.86231527 30610
GPS BIII-1              
1 43873U 18109A   23080.56868781  .00000037  00000+0  00000+0 0  9994
2 43873  55.1472 138.9521 0023883 193.4730 296.9730  2.00560502 31281
METEOR-M2 2             
1 44387U 19038A   23081.52191946  .00000156  00000+0  87769-4 0  9990
2 44387  98.7644  45.6462 0001483 143.2073 216.9206 14.23764248192974
GPS BIII-2              
1 44506U 19056A   23081.25715813 -.00000102  00000+0  00000+0 0  9998
2 44506  55.7832  18.0180 0030255 185.2965 343.2272  2.00562427 26346
BEIDOU-3 M23            
1 44542U 19061A   23080.26179049 -.00000013  00000+0  00000+0 0  9990
2 44542  54.5184 222.7173 0007664 359.2332   0.7055  1.86231087 23741
BEIDOU-3 M24            
1 44543U 19061B   23081.46972422 -.00000005  00000+0  00000+0 0  9991
2 44543  54.5163 222.6452 0004843 359.8014   1.6653  1.86231657 23766
BEIDOU-3 M21            
1 44793U 19078A   23080.37039851 -.00000093  00000+0  10000-3 0  9997
2 44793  54.8523 341.0728 0007518  12.6098 164.1665  1.86232166 22602
BEIDOU-3 M22            
1 44794U 19078B   23081.03931215 -.00000096  00000+0  00000+0 0  9995
2 44794  54.8255 341.0349 0005290   4.7722 172.6439  1.86232678 22617
ELEKTRO-L 3             
1 44903U 19095A   23081.45813383 -.00000112  00000+0  00000+0 0  9996
2 44903   0.0438  67.4348 0000455 321.0074  32.1647  1.00271632 11838
GPS BIII-3              
1 45854U 20041A   23081.11419583 -.00000014  00000+0  00000+0 0  9993
2 45854  55.7456  75.2943 0030579 187.4305 180.3317  2.00566223 20306
GPS BIII-4              
1 46826U 20078A   23080.66104515 -.00000006  00000+0  00000+0 0  9999
2 46826  54.4000 258.8348 0028595 188.3366 188.1863  2.00563578 17776
GSAT0223 (GALILEO 27)   
1 49809U 21116A   23077.62528538 -.00000093  00000+0  00000+0 0  9990
2 49809  57.2487  13.6749 0001009 283.7707 257.1768  1.70475152  7958
GSAT0224 (GALILEO 28)   
1 49810U 21116B   23079.84496110 -.00000101  00000+0  00000+0 0  9998
2 49810  57.2501  13.6128 0000900 330.3509 245.3296  1.70475192  8002
GOES 18                 
1 51850U 22021A   23081.51976953  .00000081  00000+0  00000+0 0  9992
2 51850   0.0129   3.3139 0000324 320.8570 265.6717  1.00272072  3947
